{
  "type": "FeatureCollection",
  "features": [
    {
      "type": "Feature",
      "properties": {
        "norad_id": 34478,
        "name": "COSMOS 2251 DEB",
        "group": "cosmos-2251-debris",
        "lat": -52.34263161033124,
        "lon": 6.580188544439264,
        "alt_km": 537.3859763042192,
        "timestamp": "2025-12-02T07:10:09.510777+00:00",
        "meta_object_name": "COSMOS 2251 DEB",
        "meta_object_id": "1993-036TX",
        "meta_epoch": "2025-12-01T06:13:30.792288",
        "meta_mean_motion": 15.06558721,
        "meta_eccentricity": 0.0037553,
        "meta_inclination": 74.0421,
        "meta_ra_of_asc_node": 30.4776,
        "meta_arg_of_pericenter": 253.8623,
        "meta_mean_anomaly": 175.6861,
        "meta_ephemeris_type": 0,
        "meta_classification_type": "U",
        "meta_norad_cat_id": 34478,
        "meta_element_set_no": 999,
        "meta_rev_at_epoch": 88800,
        "meta_bstar": 0.0035394,
        "meta_mean_motion_dot": 0.00053581,
        "meta_mean_motion_ddot": 0,
        "tle_line1": "1 34478U 93036TX  25335.25938417  .00053581  00000+0  35394-2 0  9991",
        "tle_line2": "2 34478  74.0421  30.4776 0037553 253.8623 175.6861 15.06558721888003"
      },
      "geometry": {
        "type": "Point",
        "coordinates": [
          6.580188544439264,
          -52.34263161033124
        ]
      }
    },
    {
      "type": "Feature",
      "properties": {
        "norad_id": 34481,
        "name": "COSMOS 2251 DEB",
        "group": "cosmos-2251-debris",
        "lat": -8.375971311495649,
        "lon": -104.99084138321143,
        "alt_km": 761.5172197889724,
        "timestamp": "2025-12-02T07:10:09.510787+00:00",
        "meta_object_name": "COSMOS 2251 DEB",
        "meta_object_id": "1993-036UA",
        "meta_epoch": "2025-12-01T02:05:49.771104",
        "meta_mean_motion": 14.32474327,
        "meta_eccentricity": 0.00709817,
        "meta_inclination": 73.98,
        "meta_ra_of_asc_node": 74.8026,
        "meta_arg_of_pericenter": 251.256,
        "meta_mean_anomaly": 173.7655,
        "meta_ephemeris_type": 0,
        "meta_classification_type": "U",
        "meta_norad_cat_id": 34481,
        "meta_element_set_no": 999,
        "meta_rev_at_epoch": 87282,
        "meta_bstar": 0.00077991727,
        "meta_mean_motion_dot": 2.146e-05,
        "meta_mean_motion_ddot": 0,
        "tle_line1": "1 34481U 93036UA  25335.08738161  .00002146  00000+0  77992-3 0  9992",
        "tle_line2": "2 34481  73.9800  74.8026 0070981 251.2560 173.7655 14.32474327872820"
      },
      "geometry": {
        "type": "Point",
        "coordinates": [
          -104.99084138321143,
          -8.375971311495649
        ]
      }
    },
    {
      "type": "Feature",
      "properties": {
        "norad_id": 34482,
        "name": "COSMOS 2251 DEB",
        "group": "cosmos-2251-debris",
        "lat": 64.81417792452969,
        "lon": -78.7044588432085,
        "alt_km": 676.5502966376353,
        "timestamp": "2025-12-02T07:10:09.510797+00:00",
        "meta_object_name": "COSMOS 2251 DEB",
        "meta_object_id": "1993-036UB",
        "meta_epoch": "2025-12-01T05:25:53.749920",
        "meta_mean_motion": 14.68749136,
        "meta_eccentricity": 0.004591,
        "meta_inclination": 74.0373,
        "meta_ra_of_asc_node": 245.8767,
        "meta_arg_of_pericenter": 308.0112,
        "meta_mean_anomaly": 213.8021,
        "meta_ephemeris_type": 0,
        "meta_classification_type": "U",
        "meta_norad_cat_id": 34482,
        "meta_element_set_no": 999,
        "meta_rev_at_epoch": 88018,
        "meta_bstar": 0.0028256,
        "meta_mean_motion_dot": 0.00016747,
        "meta_mean_motion_ddot": 0,
        "tle_line1": "1 34482U 93036UB  25335.22631655  .00016747  00000+0  28256-2 0  9999",
        "tle_line2": "2 34482  74.0373 245.8767 0045910 308.0112 213.8021 14.68749136880181"
      },
      "geometry": {
        "type": "Point",
        "coordinates": [
          -78.7044588432085,
          64.81417792452969
        ]
      }
    },
    {
      "type": "Feature",
      "properties": {
        "norad_id": 34544,
        "name": "COSMOS 2251 DEB",
        "group": "cosmos-2251-debris",
        "lat": -63.01893324675232,
        "lon": -173.58797365074057,
        "alt_km": 840.6110129197587,
        "timestamp": "2025-12-02T07:10:09.510807+00:00",
        "meta_object_name": "COSMOS 2251 DEB",
        "meta_object_id": "1993-036UE",
        "meta_epoch": "2025-12-01T03:56:42.038880",
        "meta_mean_motion": 13.54653541,
        "meta_eccentricity": 0.03848235,
        "meta_inclination": 73.9153,
        "meta_ra_of_asc_node": 222.7691,
        "meta_arg_of_pericenter": 253.3282,
        "meta_mean_anomaly": 265.9752,
        "meta_ephemeris_type": 0,
        "meta_classification_type": "U",
        "meta_norad_cat_id": 34544,
        "meta_element_set_no": 999,
        "meta_rev_at_epoch": 82725,
        "meta_bstar": 0.00018743374,
        "meta_mean_motion_dot": 1.81e-06,
        "meta_mean_motion_ddot": 0,
        "tle_line1": "1 34544U 93036UE  25335.16437545  .00000181  00000+0  18743-3 0  9999",
        "tle_line2": "2 34544  73.9153 222.7691 0384823 253.3282 265.9752 13.54653541827259"
      },
      "geometry": {
        "type": "Point",
        "coordinates": [
          -173.58797365074057,
          -63.01893324675232
        ]
      }
    },
    {
      "type": "Feature",
      "properties": {
        "norad_id": 34546,
        "name": "COSMOS 2251 DEB",
        "group": "cosmos-2251-debris",
        "lat": 66.2419294264197,
        "lon": -50.766659381309815,
        "alt_km": 733.7711302766365,
        "timestamp": "2025-12-02T07:10:09.510817+00:00",
        "meta_object_name": "COSMOS 2251 DEB",
        "meta_object_id": "1993-036UG",
        "meta_epoch": "2025-12-01T06:29:59.159904",
        "meta_mean_motion": 14.45321733,
        "meta_eccentricity": 0.0021634,
        "meta_inclination": 74.0312,
        "meta_ra_of_asc_node": 270.5684,
        "meta_arg_of_pericenter": 345.621,
        "meta_mean_anomaly": 140.1895,
        "meta_ephemeris_type": 0,
        "meta_classification_type": "U",
        "meta_norad_cat_id": 34546,
        "meta_element_set_no": 999,
        "meta_rev_at_epoch": 87860,
        "meta_bstar": 0.00085489,
        "meta_mean_motion_dot": 2.986e-05,
        "meta_mean_motion_ddot": 0,
        "tle_line1": "1 34546U 93036UG  25335.27082361  .00002986  00000+0  85489-3 0  9991",
        "tle_line2": "2 34546  74.0312 270.5684 0021634 345.6210 140.1895 14.45321733878600"
      },
      "geometry": {
        "type": "Point",
        "coordinates": [
          -50.766659381309815,
          66.2419294264197
        ]
      }
    },
    {
      "type": "Feature",
      "properties": {
        "norad_id": 34547,
        "name": "COSMOS 2251 DEB",
        "group": "cosmos-2251-debris",
        "lat": -23.123294584931315,
        "lon": 114.01846521689261,
        "alt_km": 669.5747608378315,
        "timestamp": "2025-12-02T07:10:09.510828+00:00",
        "meta_object_name": "COSMOS 2251 DEB",
        "meta_object_id": "1993-036UH",
        "meta_epoch": "2025-12-01T11:42:14.123808",
        "meta_mean_motion": 14.71865673,
        "meta_eccentricity": 0.0019031,
        "meta_inclination": 74.0293,
        "meta_ra_of_asc_node": 122.6199,
        "meta_arg_of_pericenter": 202.969,
        "meta_mean_anomaly": 157.0633,
        "meta_ephemeris_type": 0,
        "meta_classification_type": "U",
        "meta_norad_cat_id": 34547,
        "meta_element_set_no": 999,
        "meta_rev_at_epoch": 88356,
        "meta_bstar": 0.0022907065,
        "meta_mean_motion_dot": 0.00014375,
        "meta_mean_motion_ddot": 0,
        "tle_line1": "1 34547U 93036UH  25335.48766347  .00014375  00000+0  22907-2 0  9998",
        "tle_line2": "2 34547  74.0293 122.6199 0019031 202.9690 157.0633 14.71865673883565"
      },
      "geometry": {
        "type": "Point",
        "coordinates": [
          114.01846521689261,
          -23.123294584931315
        ]
      }
    },
    {
      "type": "Feature",
      "properties": {
        "norad_id": 34553,
        "name": "COSMOS 2251 DEB",
        "group": "cosmos-2251-debris",
        "lat": 53.103737575239364,
        "lon": -125.81773180680067,
        "alt_km": 704.0715132477771,
        "timestamp": "2025-12-02T07:10:09.510838+00:00",
        "meta_object_name": "COSMOS 2251 DEB",
        "meta_object_id": "1993-036UP",
        "meta_epoch": "2025-12-01T18:01:18.916032",
        "meta_mean_motion": 14.57548249,
        "meta_eccentricity": 0.0019778,
        "meta_inclination": 74.0259,
        "meta_ra_of_asc_node": 212.7933,
        "meta_arg_of_pericenter": 290.9833,
        "meta_mean_anomaly": 131.9165,
        "meta_ephemeris_type": 0,
        "meta_classification_type": "U",
        "meta_norad_cat_id": 34553,
        "meta_element_set_no": 999,
        "meta_rev_at_epoch": 87936,
        "meta_bstar": 0.0011493,
        "meta_mean_motion_dot": 5.217e-05,
        "meta_mean_motion_ddot": 0,
        "tle_line1": "1 34553U 93036UP  25335.75091338  .00005217  00000+0  11493-2 0  9999",
        "tle_line2": "2 34553  74.0259 212.7933 0019778 290.9833 131.9165 14.57548249879360"
      },
      "geometry": {
        "type": "Point",
        "coordinates": [
          -125.81773180680067,
          53.103737575239364
        ]
      }
    }
  ]
}